[{"OBJECT_NAME":"ORBCOMM FM118","OBJECT_ID":"2015-081E","EPOCH":"2026-03-09T11:40:57.402336","MEAN_MOTION":14.58732197,"ECCENTRICITY":0.00039245,"INCLINATION":47.0034,"RA_OF_ASC_NODE":113.1194,"ARG_OF_PERICENTER":286.8765,"MEAN_ANOMALY":73.169,"EPHEMERIS_TYPE":0,"CLASSIFICATION_TYPE":"U","NORAD_CAT_ID":41183,"ELEMENT_SET_NO":999,"REV_AT_EPOCH":54317,"BSTAR":0.00026393443,"MEAN_MOTION_DOT":1.073e-5,"MEAN_MOTION_DDOT":0},{"OBJECT_NAME":"DELTA 1 R\/B","OBJECT_ID":"1989-089B","EPOCH":"2026-03-09T13:14:40.767936","MEAN_MOTION":14.50662814,"ECCENTRICITY":0.00704638,"INCLINATION":97.0705,"RA_OF_ASC_NODE":276.0125,"ARG_OF_PERICENTER":122.4096,"MEAN_ANOMALY":238.3945,"EPHEMERIS_TYPE":0,"CLASSIFICATION_TYPE":"U","NORAD_CAT_ID":20323,"ELEMENT_SET_NO":999,"REV_AT_EPOCH":89571,"BSTAR":0.00011170257,"MEAN_MOTION_DOT":4.18e-6,"MEAN_MOTION_DDOT":0}]
